HULIANWANG DIGUI-28     
1 63695U 25086J   26196.19667036  .00000023  00000+0  19556-4 0  9996
2 63695  86.5021 303.4977 0002078 111.9354 248.2001 13.24410993 58564
HULIANWANG DIGUI-29     
1 63696U 25086K   26196.18914948  .00000032  00000+0  40587-4 0  9991
2 63696  86.5049 303.6158 0001939 113.7051 246.4286 13.24411340 58569
HULIANWANG DIGUI-30     
1 64283U 25121A   26196.19658854  .00000030  00000+0  36161-4 0  9997
2 64283  86.4995   4.1053 0001977  89.0062 271.1299 13.24409507 53866
HULIANWANG DIGUI-31     
1 64284U 25121B   26196.18908582  .00000039  00000+0  56112-4 0  9990
2 64284  86.5015   4.1845 0001966  89.4369 270.6990 13.24414481 53861
HULIANWANG DIGUI-32     
1 64285U 25121C   26196.18138715  .00000039  00000+0  55915-4 0  9994
2 64285  86.4956   3.9419 0001923  93.4934 266.6420 13.24410324 53860
HULIANWANG DIGUI-33     
1 64286U 25121D   26196.17383785  .00000035  00000+0  46936-4 0  9992
2 64286  86.5014   4.1731 0001978  89.8596 270.2764 13.24409951 53866
HULIANWANG DIGUI-34     
1 64287U 25121E   26196.16632068  .00000025  00000+0  24499-4 0  9992
2 64287  86.4991   4.0791 0002180  82.6714 277.4667 13.24410645 53867
HULIANWANG DIGUI-35     
1 64956U 25159A   26196.20426757  .00000029  00000+0  33705-4 0  9991
2 64956  86.4941 272.9654 0004521  65.3044 294.8560 13.24413146 46837
HULIANWANG DIGUI-36     
1 64957U 25159B   26196.20035382  .00000037  00000+0  51212-4 0  9994
2 64957  86.4960 273.0324 0001639 102.0359 258.0959 13.24408606 46839
HULIANWANG DIGUI-37     
1 64958U 25159C   26196.19278368  .00000031  00000+0  37460-4 0  9999
2 64958  86.4902 272.8224 0001783  97.8325 262.3011 13.24409314 46830
HULIANWANG DIGUI-38     
1 64959U 25159D   26196.18526433  .00000040  00000+0  59924-4 0  9997
2 64959  86.4961 273.0253 0001838  98.8650 261.2693 13.24408997 46834
HULIANWANG DIGUI-39     
1 64960U 25159E   26196.17769683  .00000054  00000+0  91127-4 0  9990
2 64960  86.4936 272.9369 0001800 101.6656 258.4680 13.24408863 46838
HULIANWANG DIGUI-40     
1 65043U 25162A   26196.13287885 -.00000119  00000+0  11601-4 0  9994
2 65043  49.9978 165.7027 0000295 312.7993  47.2854 13.29327289 47067
HULIANWANG DIGUI-41     
1 65044U 25162B   26196.12454196 -.00000115  00000+0  18846-4 0  9999
2 65044  49.9988 165.6866 0000263 322.4805  37.6049 13.29326898 47079
HULIANWANG DIGUI-42     
1 65045U 25162C   26196.11612318 -.00000110  00000+0  30744-4 0  9997
2 65045  49.9954 165.5466 0000283 313.9352  46.1496 13.29327590 47073
HULIANWANG DIGUI-43     
1 65046U 25162D   26196.10780653 -.00000116  00000+0  18303-4 0  9998
2 65046  49.9971 165.5522 0000331 311.0197  49.0646 13.29326180 47079
