{"fetched_at":"2026-07-15T17:47:13.894Z","source":"https://celestrak.org/NORAD/elements/gp.php?NAME=HULIANWANG&FORMAT=JSON","constellation":"guowang","records":[{"OBJECT_NAME":"HULIANWANG DIGUI-28","OBJECT_ID":"2025-086J","EPOCH":"2026-07-15T04:43:12.319104","CLASSIFICATION_TYPE":"U","MEAN_MOTION":13.24410993,"ECCENTRICITY":0.0002078,"INCLINATION":86.5021,"RA_OF_ASC_NODE":303.4977,"ARG_OF_PERICENTER":111.9354,"MEAN_ANOMALY":248.2001,"EPHEMERIS_TYPE":0,"NORAD_CAT_ID":63695,"ELEMENT_SET_NO":999,"REV_AT_EPOCH":5856,"BSTAR":0.000019556,"MEAN_MOTION_DOT":2.3e-7,"MEAN_MOTION_DDOT":0},{"OBJECT_NAME":"HULIANWANG DIGUI-29","OBJECT_ID":"2025-086K","EPOCH":"2026-07-15T04:32:22.515072","CLASSIFICATION_TYPE":"U","MEAN_MOTION":13.2441134,"ECCENTRICITY":0.0001939,"INCLINATION":86.5049,"RA_OF_ASC_NODE":303.6158,"ARG_OF_PERICENTER":113.7051,"MEAN_ANOMALY":246.4286,"EPHEMERIS_TYPE":0,"NORAD_CAT_ID":63696,"ELEMENT_SET_NO":999,"REV_AT_EPOCH":5856,"BSTAR":0.000040587,"MEAN_MOTION_DOT":3.2e-7,"MEAN_MOTION_DDOT":0},{"OBJECT_NAME":"HULIANWANG DIGUI-30","OBJECT_ID":"2025-121A","EPOCH":"2026-07-15T04:43:05.249856","CLASSIFICATION_TYPE":"U","MEAN_MOTION":13.24409507,"ECCENTRICITY":0.0001977,"INCLINATION":86.4995,"RA_OF_ASC_NODE":4.1053,"ARG_OF_PERICENTER":89.0062,"MEAN_ANOMALY":271.1299,"EPHEMERIS_TYPE":0,"NORAD_CAT_ID":64283,"ELEMENT_SET_NO":999,"REV_AT_EPOCH":5386,"BSTAR":0.000036161,"MEAN_MOTION_DOT":3e-7,"MEAN_MOTION_DDOT":0},{"OBJECT_NAME":"HULIANWANG DIGUI-31","OBJECT_ID":"2025-121B","EPOCH":"2026-07-15T04:32:17.014848","CLASSIFICATION_TYPE":"U","MEAN_MOTION":13.24414481,"ECCENTRICITY":0.0001966,"INCLINATION":86.5015,"RA_OF_ASC_NODE":4.1845,"ARG_OF_PERICENTER":89.4369,"MEAN_ANOMALY":270.699,"EPHEMERIS_TYPE":0,"NORAD_CAT_ID":64284,"ELEMENT_SET_NO":999,"REV_AT_EPOCH":5386,"BSTAR":0.000056112,"MEAN_MOTION_DOT":3.9e-7,"MEAN_MOTION_DDOT":0},{"OBJECT_NAME":"HULIANWANG DIGUI-32","OBJECT_ID":"2025-121C","EPOCH":"2026-07-15T04:21:11.849760","CLASSIFICATION_TYPE":"U","MEAN_MOTION":13.24410324,"ECCENTRICITY":0.0001923,"INCLINATION":86.4956,"RA_OF_ASC_NODE":3.9419,"ARG_OF_PERICENTER":93.4934,"MEAN_ANOMALY":266.642,"EPHEMERIS_TYPE":0,"NORAD_CAT_ID":64285,"ELEMENT_SET_NO":999,"REV_AT_EPOCH":5386,"BSTAR":0.000055915,"MEAN_MOTION_DOT":3.9e-7,"MEAN_MOTION_DDOT":0},{"OBJECT_NAME":"HULIANWANG DIGUI-33","OBJECT_ID":"2025-121D","EPOCH":"2026-07-15T04:10:19.590240","CLASSIFICATION_TYPE":"U","MEAN_MOTION":13.24409951,"ECCENTRICITY":0.0001978,"INCLINATION":86.5014,"RA_OF_ASC_NODE":4.1731,"ARG_OF_PERICENTER":89.8596,"MEAN_ANOMALY":270.2764,"EPHEMERIS_TYPE":0,"NORAD_CAT_ID":64286,"ELEMENT_SET_NO":999,"REV_AT_EPOCH":5386,"BSTAR":0.000046936,"MEAN_MOTION_DOT":3.5e-7,"MEAN_MOTION_DDOT":0},{"OBJECT_NAME":"HULIANWANG DIGUI-34","OBJECT_ID":"2025-121E","EPOCH":"2026-07-15T03:59:30.106752","CLASSIFICATION_TYPE":"U","MEAN_MOTION":13.24410645,"ECCENTRICITY":0.000218,"INCLINATION":86.4991,"RA_OF_ASC_NODE":4.0791,"ARG_OF_PERICENTER":82.6714,"MEAN_ANOMALY":277.4667,"EPHEMERIS_TYPE":0,"NORAD_CAT_ID":64287,"ELEMENT_SET_NO":999,"REV_AT_EPOCH":5386,"BSTAR":0.000024499,"MEAN_MOTION_DOT":2.5e-7,"MEAN_MOTION_DDOT":0},{"OBJECT_NAME":"HULIANWANG DIGUI-35","OBJECT_ID":"2025-159A","EPOCH":"2026-07-15T04:54:08.718048","CLASSIFICATION_TYPE":"U","MEAN_MOTION":13.24413146,"ECCENTRICITY":0.0004521,"INCLINATION":86.4941,"RA_OF_ASC_NODE":272.9654,"ARG_OF_PERICENTER":65.3044,"MEAN_ANOMALY":294.856,"EPHEMERIS_TYPE":0,"NORAD_CAT_ID":64956,"ELEMENT_SET_NO":999,"REV_AT_EPOCH":4683,"BSTAR":0.000033705,"MEAN_MOTION_DOT":2.9e-7,"MEAN_MOTION_DDOT":0},{"OBJECT_NAME":"HULIANWANG DIGUI-36","OBJECT_ID":"2025-159B","EPOCH":"2026-07-15T04:48:30.570048","CLASSIFICATION_TYPE":"U","MEAN_MOTION":13.24408606,"ECCENTRICITY":0.0001639,"INCLINATION":86.496,"RA_OF_ASC_NODE":273.0324,"ARG_OF_PERICENTER":102.0359,"MEAN_ANOMALY":258.0959,"EPHEMERIS_TYPE":0,"NORAD_CAT_ID":64957,"ELEMENT_SET_NO":999,"REV_AT_EPOCH":4683,"BSTAR":0.000051212,"MEAN_MOTION_DOT":3.7e-7,"MEAN_MOTION_DDOT":0},{"OBJECT_NAME":"HULIANWANG DIGUI-37","OBJECT_ID":"2025-159C","EPOCH":"2026-07-15T04:37:36.509952","CLASSIFICATION_TYPE":"U","MEAN_MOTION":13.24409314,"ECCENTRICITY":0.0001783,"INCLINATION":86.4902,"RA_OF_ASC_NODE":272.8224,"ARG_OF_PERICENTER":97.8325,"MEAN_ANOMALY":262.3011,"EPHEMERIS_TYPE":0,"NORAD_CAT_ID":64958,"ELEMENT_SET_NO":999,"REV_AT_EPOCH":4683,"BSTAR":0.00003746,"MEAN_MOTION_DOT":3.1e-7,"MEAN_MOTION_DDOT":0},{"OBJECT_NAME":"HULIANWANG DIGUI-38","OBJECT_ID":"2025-159D","EPOCH":"2026-07-15T04:26:46.838112","CLASSIFICATION_TYPE":"U","MEAN_MOTION":13.24408997,"ECCENTRICITY":0.0001838,"INCLINATION":86.4961,"RA_OF_ASC_NODE":273.0253,"ARG_OF_PERICENTER":98.865,"MEAN_ANOMALY":261.2693,"EPHEMERIS_TYPE":0,"NORAD_CAT_ID":64959,"ELEMENT_SET_NO":999,"REV_AT_EPOCH":4683,"BSTAR":0.000059924,"MEAN_MOTION_DOT":4e-7,"MEAN_MOTION_DDOT":0},{"OBJECT_NAME":"HULIANWANG DIGUI-39","OBJECT_ID":"2025-159E","EPOCH":"2026-07-15T04:15:53.006112","CLASSIFICATION_TYPE":"U","MEAN_MOTION":13.24408863,"ECCENTRICITY":0.00018,"INCLINATION":86.4936,"RA_OF_ASC_NODE":272.9369,"ARG_OF_PERICENTER":101.6656,"MEAN_ANOMALY":258.468,"EPHEMERIS_TYPE":0,"NORAD_CAT_ID":64960,"ELEMENT_SET_NO":999,"REV_AT_EPOCH":4683,"BSTAR":0.000091127,"MEAN_MOTION_DOT":5.4e-7,"MEAN_MOTION_DDOT":0},{"OBJECT_NAME":"HULIANWANG DIGUI-40","OBJECT_ID":"2025-162A","EPOCH":"2026-07-15T03:11:20.732640","CLASSIFICATION_TYPE":"U","MEAN_MOTION":13.29327289,"ECCENTRICITY":0.0000295,"INCLINATION":49.9978,"RA_OF_ASC_NODE":165.7027,"ARG_OF_PERICENTER":312.7993,"MEAN_ANOMALY":47.2854,"EPHEMERIS_TYPE":0,"NORAD_CAT_ID":65043,"ELEMENT_SET_NO":999,"REV_AT_EPOCH":4706,"BSTAR":0.000011601,"MEAN_MOTION_DOT":-0.00000119,"MEAN_MOTION_DDOT":0},{"OBJECT_NAME":"HULIANWANG DIGUI-41","OBJECT_ID":"2025-162B","EPOCH":"2026-07-15T02:59:20.425344","CLASSIFICATION_TYPE":"U","MEAN_MOTION":13.29326898,"ECCENTRICITY":0.0000263,"INCLINATION":49.9988,"RA_OF_ASC_NODE":165.6866,"ARG_OF_PERICENTER":322.4805,"MEAN_ANOMALY":37.6049,"EPHEMERIS_TYPE":0,"NORAD_CAT_ID":65044,"ELEMENT_SET_NO":999,"REV_AT_EPOCH":4707,"BSTAR":0.000018846,"MEAN_MOTION_DOT":-0.00000115,"MEAN_MOTION_DDOT":0},{"OBJECT_NAME":"HULIANWANG DIGUI-42","OBJECT_ID":"2025-162C","EPOCH":"2026-07-15T02:47:13.042752","CLASSIFICATION_TYPE":"U","MEAN_MOTION":13.2932759,"ECCENTRICITY":0.0000283,"INCLINATION":49.9954,"RA_OF_ASC_NODE":165.5466,"ARG_OF_PERICENTER":313.9352,"MEAN_ANOMALY":46.1496,"EPHEMERIS_TYPE":0,"NORAD_CAT_ID":65045,"ELEMENT_SET_NO":999,"REV_AT_EPOCH":4707,"BSTAR":0.000030744,"MEAN_MOTION_DOT":-0.0000011,"MEAN_MOTION_DDOT":0},{"OBJECT_NAME":"HULIANWANG DIGUI-43","OBJECT_ID":"2025-162D","EPOCH":"2026-07-15T02:35:14.484192","CLASSIFICATION_TYPE":"U","MEAN_MOTION":13.2932618,"ECCENTRICITY":0.0000331,"INCLINATION":49.9971,"RA_OF_ASC_NODE":165.5522,"ARG_OF_PERICENTER":311.0197,"MEAN_ANOMALY":49.0646,"EPHEMERIS_TYPE":0,"NORAD_CAT_ID":65046,"ELEMENT_SET_NO":999,"REV_AT_EPOCH":4707,"BSTAR":0.000018303,"MEAN_MOTION_DOT":-0.00000116,"MEAN_MOTION_DDOT":0}]}
